STARLINK-1222           
1 45228U 20012BC  26191.95827019  .00022618  00000+0  30789-3 0  9994
2 45228  53.0513 108.3429 0003697  91.5541 268.5893 15.57489423354783
STARLINK-1226           
1 45229U 20012BD  26192.27522437  .00042951  00000+0  81806-3 0  9995
2 45229  53.1529 135.4596 0004927  43.5296 316.6101 15.47788643354466
STARLINK-1227           
1 45230U 20012BE  26192.34755513  .00043484  00000+0  82502-3 0  9994
2 45230  53.1501 135.1921 0005134  37.8817 322.2552 15.47892617354597
STARLINK-1246           
1 45235U 20012BK  26192.35996683  .00030170  00000+0  80258-3 0  9999
2 45235  53.1537 182.2444 0004984  11.0819 349.0294 15.37987350353948
STARLINK-1270           
1 45237U 20012BM  26191.98619159  .00044264  00000+0  33477-3 0  9999
2 45237  53.0381 108.4601 0001338 164.4138 195.6921 15.71992716354895
JCSAT-17                
1 45245U 20013A   26192.48468123 -.00000307  00000+0  00000+0 0  9991
2 45245   5.3920 357.0890 0002852 127.6055 115.1995  1.00270528 23478
GEO-KOMPSAT-2B          
1 45246U 20013B   26192.51904600 -.00000338  00000+0  00000+0 0  9995
2 45246   0.0476 230.0808 0000715   7.0907   7.3672  1.00271708 23520
MERIDIAN 9              
1 45254U 20015A   26192.39521042 -.00000021  00000+0  00000+0 0  9996
2 45254  65.5382 316.4222 6850582 277.4902  15.5933  2.00607120 46774
BEIDOU-3 G2             
1 45344U 20017A   26192.50951317 -.00000137  00000+0  00000+0 0  9991
2 45344   2.9105  47.6667 0002076  58.7433  86.4818  1.00269581 23507
COSMOS 2545 [GLONASS-M] 
1 45358U 20018A   26188.87178822 -.00000052  00000+0  00000+0 0  9990
2 45358  64.3418 311.6924 0009213 230.0449 129.8870  2.13102711 49103
STARLINK-1279           
1 45360U 20019A   26192.52236243  .00097444  00000+0  37678-3 0  9998
2 45360  53.0307 205.6524 0003999  30.0375 330.0877 15.86487164350130
STARLINK-1301           
1 45361U 20019B   26192.44174508  .00106099  00000+0  37791-3 0  9998
2 45361  53.0290 208.0005 0006228  31.3692 328.7703 15.88107220350100
STARLINK-1262           
1 45366U 20019G   26192.48316120  .00030893  00000+0  84727-3 0  9994
2 45366  53.1525 308.3535 0001944 262.7641  97.3142 15.37038129348730
STARLINK-1273           
1 45367U 20019H   26192.52961779  .00060743  00000+0  68134-3 0  9997
2 45367  53.0415 277.6397 0002862 348.7484  11.3465 15.62097513349142
STARLINK-1277           
1 45369U 20019K   26192.49267140  .00037803  00000+0  30321-3 0  9994
2 45369  53.0402 269.7626 0002982  15.3610 344.7497 15.70659893349252
STARLINK-1281           
1 45370U 20019L   26192.54159475  .00029401  00000+0  78619-3 0  9990
2 45370  53.1574 307.5217 0001169 239.4409 120.6480 15.37848757348752
STARLINK-1300           
1 45374U 20019Q   26192.54106470  .00036013  00000+0  94142-3 0  9997
2 45374  53.1571 307.2924 0001838 239.1592 120.9231 15.38445640348750
STARLINK-1302           
1 45375U 20019R   26192.46257552  .00035618  00000+0  28319-3 0  9990
2 45375  53.0438 265.7082 0000874  94.2649 265.8468 15.70903456349300
STARLINK-1304           
1 45376U 20019S   26192.48941904  .00029783  00000+0  28400-3 0  9991
2 45376  53.0403 267.8993 0000844 320.3929  39.7024 15.66550423349277
STARLINK-1305           
1 45377U 20019T   26191.17655496  .00069147  00000+0  43644-3 0  9990
2 45377  53.0356 250.7930 0006905   4.0653 356.0421 15.75988081349407
STARLINK-1319           
1 45379U 20019V   26192.51986447  .00073796  00000+0  32270-3 0  9992
2 45379  53.0335 234.0805 0003924  23.5483 336.5719 15.84035600349758
STARLINK-1266           
1 45383U 20019Z   26192.19728676  .00034662  00000+0  29759-3 0  9996
2 45383  53.0426 253.6922 0004176   5.1985 354.9074 15.69052275349448
STARLINK-1267           
1 45384U 20019AA  26192.17891565  .00046203  00000+0  32548-3 0  9997
2 45384  53.0404 244.4247 0002599  33.1158 327.0022 15.73644105349575
STARLINK-1272           
1 45386U 20019AC  26192.48503980  .00057141  00000+0  32078-3 0  9995
2 45386  53.0359 220.5524 0002845  46.5143 313.6113 15.78731195349938
STARLINK-1274           
1 45387U 20019AD  26192.45460073  .00076749  00000+0  65983-3 0  9994
2 45387  53.0162 222.1186 0006074 325.0631  34.9985 15.68659484349904
STARLINK-1280           
1 45388U 20019AE  26192.39889801  .00147873  19239-4  45176-3 0  9990
2 45388  53.0301 225.5051 0007599  22.5189 337.6169 15.91657318349848
STARLINK-1283           
1 45389U 20019AF  26191.68950257  .00056783  00000+0  35905-3 0  9995
2 45389  53.0346 223.7394 0004229 359.2854   0.8158 15.76045805349824
STARLINK-1284           
1 45390U 20019AG  26192.12497639  .00049682  00000+0  34228-3 0  9994
2 45390  53.0386 245.8934 0003974  59.8163 300.3249 15.74127227349542
STARLINK-1297           
1 45395U 20019AM  26192.49555308  .00052897  00000+0  31749-3 0  9994
2 45395  53.0396 242.7963 0003427  26.5861 333.5334 15.77262473348802
STARLINK-1307           
1 45397U 20019AP  26192.49558606  .00020056  00000+0  25894-3 0  9996
2 45397  53.0506 252.5149 0001884   1.7471 358.3547 15.58991917349318
