OBJECT_NAME,OBJECT_ID,EPOCH,MEAN_MOTION,ECCENTRICITY,INCLINATION,RA_OF_ASC_NODE,ARG_OF_PERICENTER,MEAN_ANOMALY,EPHEMERIS_TYPE,CLASSIFICATION_TYPE,NORAD_CAT_ID,ELEMENT_SET_NO,REV_AT_EPOCH,BSTAR,MEAN_MOTION_DOT,MEAN_MOTION_DDOT
STARLINK-1222,2020-012BC,2026-07-10T22:59:54.544416,15.57489423,.0003697,53.0513,108.3429,91.5541,268.5893,0,U,45228,999,35478,.30789E-3,.22618E-3,0
STARLINK-1226,2020-012BD,2026-07-11T06:36:19.385568,15.47788643,.0004927,53.1529,135.4596,43.5296,316.6101,0,U,45229,999,35446,.81806E-3,.42951E-3,0
STARLINK-1227,2020-012BE,2026-07-11T08:20:28.763232,15.47892617,.0005134,53.1501,135.1921,37.8817,322.2552,0,U,45230,999,35459,.82502E-3,.43484E-3,0
STARLINK-1246,2020-012BK,2026-07-11T08:38:21.134112,15.37987350,.0004984,53.1537,182.2444,11.0819,349.0294,0,U,45235,999,35394,.80258E-3,.3017E-3,0
STARLINK-1270,2020-012BM,2026-07-10T23:40:06.953376,15.71992716,.0001338,53.0381,108.4601,164.4138,195.6921,0,U,45237,999,35489,.33477E-3,.44264E-3,0
JCSAT-17,2020-013A,2026-07-11T11:37:56.458272,1.00270528,.0002852,5.3920,357.0890,127.6055,115.1995,0,U,45245,999,2347,0,-.307E-5,0
GEO-KOMPSAT-2B,2020-013B,2026-07-11T12:27:25.574400,1.00271708,.0000715,0.0476,230.0808,7.0907,7.3672,0,U,45246,999,2352,0,-.338E-5,0
MERIDIAN 9,2020-015A,2026-07-11T09:29:06.180288,2.00607120,.6850582,65.5382,316.4222,277.4902,15.5933,0,U,45254,999,4677,0,-.21E-6,0
BEIDOU-3 G2,2020-017A,2026-07-11T12:13:41.937888,1.00269581,.0002076,2.9105,47.6667,58.7433,86.4818,0,U,45344,999,2350,0,-.137E-5,0
COSMOS 2545 [GLONASS-M],2020-018A,2026-07-07T20:55:22.502208,2.13102711,.00092133,64.3418,311.6924,230.0449,129.8870,0,U,45358,999,4910,0,-.52E-6,0
STARLINK-1279,2020-019A,2026-07-11T12:32:12.113952,15.86487164,.0003999,53.0307,205.6524,30.0375,330.0877,0,U,45360,999,35013,.37678E-3,.97444E-3,0
STARLINK-1301,2020-019B,2026-07-11T10:36:06.774912,15.88107220,.0006228,53.0290,208.0005,31.3692,328.7703,0,U,45361,999,35010,.37791E-3,.106099E-2,0
STARLINK-1262,2020-019G,2026-07-11T11:35:45.127680,15.37038129,.0001944,53.1525,308.3535,262.7641,97.3142,0,U,45366,999,34873,.84727E-3,.30893E-3,0
STARLINK-1273,2020-019H,2026-07-11T12:42:38.977056,15.62097513,.0002862,53.0415,277.6397,348.7484,11.3465,0,U,45367,999,34914,.68134E-3,.60743E-3,0
STARLINK-1277,2020-019K,2026-07-11T11:49:26.808960,15.70659893,.0002982,53.0402,269.7626,15.3610,344.7497,0,U,45369,999,34925,.30321E-3,.37803E-3,0
STARLINK-1281,2020-019L,2026-07-11T12:59:53.786400,15.37848757,.0001169,53.1574,307.5217,239.4409,120.6480,0,U,45370,999,34875,.78619E-3,.29401E-3,0
STARLINK-1300,2020-019Q,2026-07-11T12:59:07.990080,15.38445640,.0001838,53.1571,307.2924,239.1592,120.9231,0,U,45374,999,34875,.94142E-3,.36013E-3,0
STARLINK-1302,2020-019R,2026-07-11T11:06:06.524928,15.70903456,.0000874,53.0438,265.7082,94.2649,265.8468,0,U,45375,999,34930,.28319E-3,.35618E-3,0
STARLINK-1304,2020-019S,2026-07-11T11:44:45.805056,15.66550423,.0000844,53.0403,267.8993,320.3929,39.7024,0,U,45376,999,34927,.284E-3,.29783E-3,0
STARLINK-1305,2020-019T,2026-07-10T04:14:14.348544,15.75988081,.00069053,53.0356,250.7930,4.0653,356.0421,0,U,45377,999,34940,.43644196E-3,.69147E-3,0
STARLINK-1319,2020-019V,2026-07-11T12:28:36.290208,15.84035600,.0003924,53.0335,234.0805,23.5483,336.5719,0,U,45379,999,34975,.3227E-3,.73796E-3,0
STARLINK-1266,2020-019Z,2026-07-11T04:44:05.576064,15.69052275,.0004176,53.0426,253.6922,5.1985,354.9074,0,U,45383,999,34944,.29759E-3,.34662E-3,0
STARLINK-1267,2020-019AA,2026-07-11T04:17:38.312160,15.73644105,.0002599,53.0404,244.4247,33.1158,327.0022,0,U,45384,999,34957,.32548E-3,.46203E-3,0
STARLINK-1272,2020-019AC,2026-07-11T11:38:27.438720,15.78731195,.0002845,53.0359,220.5524,46.5143,313.6113,0,U,45386,999,34993,.32078E-3,.57141E-3,0
STARLINK-1274,2020-019AD,2026-07-11T10:54:37.503072,15.68659484,.0006074,53.0162,222.1186,325.0631,34.9985,0,U,45387,999,34990,.65983E-3,.76749E-3,0
STARLINK-1280,2020-019AE,2026-07-11T09:34:24.788064,15.91657318,.0007599,53.0301,225.5051,22.5189,337.6169,0,U,45388,999,34984,.45176E-3,.147873E-2,.19239E-4
STARLINK-1283,2020-019AF,2026-07-10T16:32:53.022048,15.76045805,.0004229,53.0346,223.7394,359.2854,0.8158,0,U,45389,999,34982,.35905E-3,.56783E-3,0
STARLINK-1284,2020-019AG,2026-07-11T02:59:57.960096,15.74127227,.0003974,53.0386,245.8934,59.8163,300.3249,0,U,45390,999,34954,.34228E-3,.49682E-3,0
STARLINK-1297,2020-019AM,2026-07-11T11:53:35.786112,15.77262473,.0003427,53.0396,242.7963,26.5861,333.5334,0,U,45395,999,34880,.31749E-3,.52897E-3,0
STARLINK-1307,2020-019AP,2026-07-11T11:53:38.635584,15.58991917,.0001884,53.0506,252.5149,1.7471,358.3547,0,U,45397,999,34931,.25894E-3,.20056E-3,0
